start=new Date('2022-03-06T00:00:00.000Z').valueOf();
sats=[{"FILE":"3346512","REF_FRAME":"TEME","LAUNCH_DATE":"2020-02-17","NORAD_CAT_ID":"45198","MEAN_MOTION_DDOT":"0.0000000000000","EPOCH":"2022-03-05T20:23:59.853984","TLE_LINE2":"2 45198  53.0526 122.5350 0001559  59.1163 300.9979 15.06401614114273","EPHEMERIS_TYPE":"0","RA_OF_ASC_NODE":"122.5350","MEAN_ANOMALY":"300.9979","INCLINATION":"53.0526","CLASSIFICATION_TYPE":"U","COUNTRY_CODE":"US","GP_ID":"198016614","APOAPSIS":"548.288","DECAY_DATE":null,"ARG_OF_PERICENTER":"59.1163","MEAN_MOTION":"15.06401614","PERIAPSIS":"546.129","RCS_SIZE":"LARGE","OBJECT_NAME":"STARLINK-1154","MEAN_MOTION_DOT":"0.00001109","SEMIMAJOR_AXIS":"6925.344","SITE":"AFETR","OBJECT_TYPE":"PAYLOAD","PERIOD":"95.592","ELEMENT_SET_NO":"999","TLE_LINE1":"1 45198U 20012W   22064.84999831  .00001109  00000-0  93301-4 0  9998","ECCENTRICITY":"0.00015590","OBJECT_ID":"2020-012W","BSTAR":"0.00009330100000","REV_AT_EPOCH":"11427","MEAN_ELEMENT_THEORY":"SGP4","TIME_SYSTEM":"UTC","CENTER_NAME":"EARTH"},{"ECCENTRICITY":"0.00014510","OBJECT_ID":"2020-012X","CENTER_NAME":"EARTH","TIME_SYSTEM":"UTC","BSTAR":"0.00014684000000","MEAN_ELEMENT_THEORY":"SGP4","REV_AT_EPOCH":"11433","PERIOD":"95.592","OBJECT_TYPE":"PAYLOAD","SITE":"AFETR","SEMIMAJOR_AXIS":"6925.326","TLE_LINE1":"1 45199U 20012X   22064.85368201  .00001907  00000-0  14684-3 0  9993","ELEMENT_SET_NO":"999","ARG_OF_PERICENTER":"61.5757","MEAN_MOTION":"15.06407508","DECAY_DATE":null,"COUNTRY_CODE":"US","GP_ID":"198016865","APOAPSIS":"548.195","CLASSIFICATION_TYPE":"U","RCS_SIZE":"LARGE","OBJECT_NAME":"STARLINK-1197","MEAN_MOTION_DOT":"0.00001907","PERIAPSIS":"546.186","MEAN_MOTION_DDOT":"0.0000000000000","LAUNCH_DATE":"2020-02-17","NORAD_CAT_ID":"45199","REF_FRAME":"TEME","FILE":"3346512","MEAN_ANOMALY":"298.5378","INCLINATION":"53.0536","RA_OF_ASC_NODE":"122.5169","TLE_LINE2":"2 45199  53.0536 122.5169 0001451  61.5757 298.5378 15.06407508114330","EPHEMERIS_TYPE":"0","EPOCH":"2022-03-05T20:29:18.125664"},{"OBJECT_ID":"2020-012Z","ECCENTRICITY":"0.00015030","CENTER_NAME":"EARTH","TIME_SYSTEM":"UTC","BSTAR":"0.00007336500000","MEAN_ELEMENT_THEORY":"SGP4","REV_AT_EPOCH":"11433","SITE":"AFETR","SEMIMAJOR_AXIS":"6925.328","PERIOD":"95.592","OBJECT_TYPE":"PAYLOAD","ELEMENT_SET_NO":"999","TLE_LINE1":"1 45201U 20012Z   22064.86105795  .00000812  00000-0  73365-4 0  9991","COUNTRY_CODE":"US","GP_ID":"198015114","APOAPSIS":"548.234","CLASSIFICATION_TYPE":"U","MEAN_MOTION":"15.06406720","ARG_OF_PERICENTER":"57.3537","DECAY_DATE":null,"PERIAPSIS":"546.152","OBJECT_NAME":"STARLINK-1199","RCS_SIZE":"LARGE","MEAN_MOTION_DOT":"0.00000812","NORAD_CAT_ID":"45201","LAUNCH_DATE":"2020-02-17","FILE":"3346512","REF_FRAME":"TEME","MEAN_MOTION_DDOT":"0.0000000000000","TLE_LINE2":"2 45201  53.0528 122.4944 0001503  57.3537 302.7597 15.06406720114338","EPHEMERIS_TYPE":"0","RA_OF_ASC_NODE":"122.4944","EPOCH":"2022-03-05T20:39:55.406880","INCLINATION":"53.0528","MEAN_ANOMALY":"302.7597"},{"TIME_SYSTEM":"UTC","CENTER_NAME":"EARTH","BSTAR":"0.00105200000000","REV_AT_EPOCH":"11412","MEAN_ELEMENT_THEORY":"SGP4","ECCENTRICITY":"0.00009480","OBJECT_ID":"2020-012AA","TLE_LINE1":"1 45202U 20012AA  22064.59699605  .00017433  00000-0  10520-2 0  9999","ELEMENT_SET_NO":"999","PERIOD":"95.312","OBJECT_TYPE":"PAYLOAD","SEMIMAJOR_AXIS":"6911.829","SITE":"AFETR","RCS_SIZE":"LARGE","MEAN_MOTION_DOT":"0.00017433","OBJECT_NAME":"STARLINK-1203","PERIAPSIS":"533.039","ARG_OF_PERICENTER":"49.7577","MEAN_MOTION":"15.10821833","DECAY_DATE":null,"APOAPSIS":"534.350","GP_ID":"198015364","COUNTRY_CODE":"US","CLASSIFICATION_TYPE":"U","MEAN_ANOMALY":"310.3496","INCLINATION":"52.9805","TLE_LINE2":"2 45202  52.9805 134.8351 0000948  49.7577 310.3496 15.10821833114126","EPHEMERIS_TYPE":"0","RA_OF_ASC_NODE":"134.8351","EPOCH":"2022-03-05T14:19:40.458720","MEAN_MOTION_DDOT":"0.0000000000000","NORAD_CAT_ID":"45202","LAUNCH_DATE":"2020-02-17","REF_FRAME":"TEME","FILE":"3346512"},{"TIME_SYSTEM":"UTC","CENTER_NAME":"EARTH","BSTAR":"0.00015738000000","MEAN_ELEMENT_THEORY":"SGP4","REV_AT_EPOCH":"11435","OBJECT_ID":"2020-012AC","ECCENTRICITY":"0.00017670","TLE_LINE1":"1 45204U 20012AC  22064.88685570  .00002064  00000-0  15738-3 0  9990","ELEMENT_SET_NO":"999","PERIOD":"95.592","OBJECT_TYPE":"PAYLOAD","SEMIMAJOR_AXIS":"6925.324","SITE":"AFETR","OBJECT_NAME":"STARLINK-1206","RCS_SIZE":"LARGE","MEAN_MOTION_DOT":"0.00002064","PERIAPSIS":"545.966","ARG_OF_PERICENTER":"54.6992","MEAN_MOTION":"15.06407888","DECAY_DATE":null,"GP_ID":"198016115","APOAPSIS":"548.413","COUNTRY_CODE":"US","CLASSIFICATION_TYPE":"U","INCLINATION":"53.0561","MEAN_ANOMALY":"305.4162","TLE_LINE2":"2 45204  53.0561 122.3732 0001767  54.6992 305.4162 15.06407888114355","RA_OF_ASC_NODE":"122.3732","EPHEMERIS_TYPE":"0","EPOCH":"2022-03-05T21:17:04.332480","MEAN_MOTION_DDOT":"0.0000000000000","NORAD_CAT_ID":"45204","LAUNCH_DATE":"2020-02-17","REF_FRAME":"TEME","FILE":"3346512"},{"OBJECT_ID":"2020-012AD","ECCENTRICITY":"0.00016470","MEAN_ELEMENT_THEORY":"SGP4","BSTAR":"0.00025974000000","REV_AT_EPOCH":"11431","TIME_SYSTEM":"UTC","CENTER_NAME":"EARTH","OBJECT_TYPE":"PAYLOAD","PERIOD":"95.592","SEMIMAJOR_AXIS":"6925.323","SITE":"AFETR","TLE_LINE1":"1 45205U 20012AD  22064.57724514  .00003590  00000-0  25974-3 0  9997","ELEMENT_SET_NO":"999","DECAY_DATE":null,"MEAN_MOTION":"15.06408468","ARG_OF_PERICENTER":"61.6415","CLASSIFICATION_TYPE":"U","GP_ID":"197979169","APOAPSIS":"548.328","COUNTRY_CODE":"US","RCS_SIZE":"LARGE","OBJECT_NAME":"STARLINK-1208","MEAN_MOTION_DOT":"0.00003590","PERIAPSIS":"546.047","MEAN_MOTION_DDOT":"0.0000000000000","REF_FRAME":"TEME","FILE":"3346052","LAUNCH_DATE":"2020-02-17","NORAD_CAT_ID":"45205","MEAN_ANOMALY":"298.4740","INCLINATION":"53.0528","EPOCH":"2022-03-05T13:51:13.980096","TLE_LINE2":"2 45205  53.0528 123.7523 0001647  61.6415 298.4740 15.06408468114311","RA_OF_ASC_NODE":"123.7523","EPHEMERIS_TYPE":"0"},{"ELEMENT_SET_NO":"999","TLE_LINE1":"1 45206U 20012AE  22064.80393030  .00000158  00000-0  29517-4 0  9994","SEMIMAJOR_AXIS":"6925.347","SITE":"AFETR","PERIOD":"95.592","OBJECT_TYPE":"PAYLOAD","TIME_SYSTEM":"UTC","CENTER_NAME":"EARTH","MEAN_ELEMENT_THEORY":"SGP4","BSTAR":"0.00002951700000","REV_AT_EPOCH":"11365","OBJECT_ID":"2020-012AE","ECCENTRICITY":"0.00016710","RA_OF_ASC_NODE":"102.7510","TLE_LINE2":"2 45206  53.0536 102.7510 0001671  59.9132 300.2023 15.06400531113652","EPHEMERIS_TYPE":"0","EPOCH":"2022-03-05T19:17:39.577920","INCLINATION":"53.0536","MEAN_ANOMALY":"300.2023","LAUNCH_DATE":"2020-02-17","NORAD_CAT_ID":"45206","FILE":"3346512","REF_FRAME":"TEME","MEAN_MOTION_DDOT":"0.0000000000000","PERIAPSIS":"546.055","MEAN_MOTION_DOT":"0.00000158","RCS_SIZE":"LARGE","OBJECT_NAME":"STARLINK-1209","GP_ID":"198015614","COUNTRY_CODE":"US","APOAPSIS":"548.369","CLASSIFICATION_TYPE":"U","MEAN_MOTION":"15.06400531","ARG_OF_PERICENTER":"59.9132","DECAY_DATE":null},{"GP_ID":"198015864","COUNTRY_CODE":"US","APOAPSIS":"548.258","CLASSIFICATION_TYPE":"U","MEAN_MOTION":"15.06410475","ARG_OF_PERICENTER":"67.0644","DECAY_DATE":null,"PERIAPSIS":"546.105","OBJECT_NAME":"STARLINK-1210","RCS_SIZE":"LARGE","MEAN_MOTION_DOT":"0.00005488","NORAD_CAT_ID":"45207","LAUNCH_DATE":"2020-02-17","REF_FRAME":"TEME","FILE":"3346512","MEAN_MOTION_DDOT":"0.0000000000000","EPHEMERIS_TYPE":"0","TLE_LINE2":"2 45207  53.0526 122.4645 0001555  67.0644 293.0509 15.06410475114331","RA_OF_ASC_NODE":"122.4645","EPOCH":"2022-03-05T20:45:13.664736","INCLINATION":"53.0526","MEAN_ANOMALY":"293.0509","OBJECT_ID":"2020-012AF","ECCENTRICITY":"0.00015550","TIME_SYSTEM":"UTC","CENTER_NAME":"EARTH","MEAN_ELEMENT_THEORY":"SGP4","BSTAR":"0.00038695000000","REV_AT_EPOCH":"11433","SEMIMAJOR_AXIS":"6925.316","SITE":"AFETR","PERIOD":"95.591","OBJECT_TYPE":"PAYLOAD","ELEMENT_SET_NO":"999","TLE_LINE1":"1 45207U 20012AF  22064.86474149  .00005488  00000-0  38695-3 0  9999"},{"MEAN_MOTION":"15.05592409","ARG_OF_PERICENTER":"68.9254","DECAY_DATE":null,"GP_ID":"197979919","COUNTRY_CODE":"US","APOAPSIS":"550.791","CLASSIFICATION_TYPE":"U","RCS_SIZE":"LARGE","OBJECT_NAME":"STARLINK-1211","MEAN_MOTION_DOT":"0.00000255","PERIAPSIS":"548.588","MEAN_MOTION_DDOT":"0.0000000000000","LAUNCH_DATE":"2020-02-17","NORAD_CAT_ID":"45208","FILE":"3346052","REF_FRAME":"TEME","MEAN_ANOMALY":"291.1904","INCLINATION":"53.0016","TLE_LINE2":"2 45208  53.0016 123.7889 0001590  68.9254 291.1904 15.05592409114195","RA_OF_ASC_NODE":"123.7889","EPHEMERIS_TYPE":"0","EPOCH":"2022-03-05T13:39:24.755328","ECCENTRICITY":"0.00015900","OBJECT_ID":"2020-012AG","TIME_SYSTEM":"UTC","CENTER_NAME":"EARTH","BSTAR":"0.00003665700000","MEAN_ELEMENT_THEORY":"SGP4","REV_AT_EPOCH":"11419","PERIOD":"95.643","OBJECT_TYPE":"PAYLOAD","SEMIMAJOR_AXIS":"6927.825","SITE":"AFETR","TLE_LINE1":"1 45208U 20012AG  22064.56903652  .00000255  00000-0  36657-4 0  9997","ELEMENT_SET_NO":"999"},{"OBJECT_ID":"2020-012AH","ECCENTRICITY":"0.00076620","BSTAR":"0.00002073900000","MEAN_ELEMENT_THEORY":"SGP4","REV_AT_EPOCH":"11597","TIME_SYSTEM":"UTC","CENTER_NAME":"EARTH","OBJECT_TYPE":"PAYLOAD","PERIOD":"91.327","SEMIMAJOR_AXIS":"6717.776","SITE":"AFETR","TLE_LINE1":"1 45209U 20012AH  22064.87671161  .00002739  00000-0  20739-4 0  9992","ELEMENT_SET_NO":"999","DECAY_DATE":null,"MEAN_MOTION":"15.76755955","ARG_OF_PERICENTER":"295.0154","CLASSIFICATION_TYPE":"U","GP_ID":"198016866","COUNTRY_CODE":"US","APOAPSIS":"344.788","MEAN_MOTION_DOT":"0.00002739","RCS_SIZE":"LARGE","OBJECT_NAME":"STARLINK-1218","PERIAPSIS":"334.494","MEAN_MOTION_DDOT":"0.0000000000000","FILE":"3346512","REF_FRAME":"TEME","NORAD_CAT_ID":"45209","LAUNCH_DATE":"2020-02-17","MEAN_ANOMALY":"65.0070","INCLINATION":"53.0501","EPOCH":"2022-03-05T21:02:27.883104","TLE_LINE2":"2 45209  53.0501   1.5124 0007662 295.0154  65.0070 15.76755955115972","RA_OF_ASC_NODE":"1.5124","EPHEMERIS_TYPE":"0"}];
